{
  "norad_id": 54009,
  "name": "STARLINK-5099",
  "history": [
    {
      "epoch": "2026-03-28T12:55:11.757792Z",
      "apogee_km": 541.0047465509679,
      "perigee_km": 538.4894039012152,
      "latitude_deg": 5.767116600778074e-05,
      "longitude_deg": 109.3541135144553,
      "height_km": 540.0339376564901,
      "semi_major_axis_km": 6917.884075226091,
      "eccentricity": 0.0001818,
      "inclination_deg": 53.2157,
      "raan_deg": 129.1104,
      "arg_perigee_deg": 61.0724,
      "mean_anomaly_deg": 299.0451,
      "mean_motion_rev_day": 15.08838794
    },
    {
      "epoch": "2026-03-30T01:29:03.804576Z",
      "apogee_km": 540.8776807201211,
      "perigee_km": 538.6072326824333,
      "latitude_deg": 6.732552858076925e-05,
      "longitude_deg": -87.45268941587013,
      "height_km": 540.1422752675313,
      "semi_major_axis_km": 6917.879456701277,
      "eccentricity": 0.0001641,
      "inclination_deg": 53.2159,
      "raan_deg": 122.2721,
      "arg_perigee_deg": 64.117,
      "mean_anomaly_deg": 295.9992,
      "mean_motion_rev_day": 15.08840305
    },
    {
      "epoch": "2026-03-30T06:15:13.156416Z",
      "apogee_km": 540.8735691376032,
      "perigee_km": 538.6094858531242,
      "latitude_deg": -6.138784354165876e-06,
      "longitude_deg": -160.07957654051657,
      "height_km": 540.1602913441224,
      "semi_major_axis_km": 6917.878527495363,
      "eccentricity": 0.00016364,
      "inclination_deg": 53.216,
      "raan_deg": 121.3801,
      "arg_perigee_deg": 65.1,
      "mean_anomaly_deg": 295.0162,
      "mean_motion_rev_day": 15.08840609
    },
    {
      "epoch": "2026-03-30T11:01:22.415808Z",
      "apogee_km": 540.8921973874958,
      "perigee_km": 538.5723591037304,
      "latitude_deg": 7.412683501051574e-05,
      "longitude_deg": 127.29323689691117,
      "height_km": 540.1242084980667,
      "semi_major_axis_km": 6917.869278245613,
      "eccentricity": 0.00016767,
      "inclination_deg": 53.216,
      "raan_deg": 120.4873,
      "arg_perigee_deg": 64.2777,
      "mean_anomaly_deg": 295.8389,
      "mean_motion_rev_day": 15.08843635
    },
    {
      "epoch": "2026-03-30T18:58:17.870304Z",
      "apogee_km": 540.8930538156401,
      "perigee_km": 538.5591051698811,
      "latitude_deg": 1.405683052599203e-05,
      "longitude_deg": 6.249389170347323,
      "height_km": 540.1366201031575,
      "semi_major_axis_km": 6917.86307949276,
      "eccentricity": 0.00016869,
      "inclination_deg": 53.2161,
      "raan_deg": 119.001,
      "arg_perigee_deg": 65.4538,
      "mean_anomaly_deg": 294.663,
      "mean_motion_rev_day": 15.08845663
    },
    {
      "epoch": "2026-03-31T14:02:55.305312Z",
      "apogee_km": 540.8626934955828,
      "perigee_km": 538.6517345047869,
      "latitude_deg": 9.900146770047779e-06,
      "longitude_deg": 75.7413407118707,
      "height_km": 540.2111556047889,
      "semi_major_axis_km": 6917.894214000185,
      "eccentricity": 0.0001598,
      "inclination_deg": 53.2158,
      "raan_deg": 115.4324,
      "arg_perigee_deg": 66.4636,
      "mean_anomaly_deg": 293.6524,
      "mean_motion_rev_day": 15.08835477
    },
    {
      "epoch": "2026-04-01T18:39:51.913152Z",
      "apogee_km": 540.8525972714706,
      "perigee_km": 538.6347247315543,
      "latitude_deg": 6.383289776848216e-05,
      "longitude_deg": -0.022289686980820896,
      "height_km": 540.2074547354581,
      "semi_major_axis_km": 6917.880661001513,
      "eccentricity": 0.0001603,
      "inclination_deg": 53.216,
      "raan_deg": 110.0798,
      "arg_perigee_deg": 67.0952,
      "mean_anomaly_deg": 293.021,
      "mean_motion_rev_day": 15.08839911
    },
    {
      "epoch": "2026-04-02T18:30:38.602368Z",
      "apogee_km": 540.8696629591041,
      "perigee_km": 538.5833090769747,
      "latitude_deg": -6.399426614437211e-05,
      "longitude_deg": -3.1565551684484587,
      "height_km": 540.1821040176727,
      "semi_major_axis_km": 6917.863486018039,
      "eccentricity": 0.00016525,
      "inclination_deg": 53.216,
      "raan_deg": 105.6195,
      "arg_perigee_deg": 67.3777,
      "mean_anomaly_deg": 292.7389,
      "mean_motion_rev_day": 15.0884553
    },
    {
      "epoch": "2026-04-03T07:13:44.289984Z",
      "apogee_km": 540.9676389147708,
      "perigee_km": 538.5297759914647,
      "latitude_deg": 1.0935097773353416e-06,
      "longitude_deg": 163.16867513878879,
      "height_km": 540.2480782477893,
      "semi_major_axis_km": 6917.885707453117,
      "eccentricity": 0.0001762,
      "inclination_deg": 53.2169,
      "raan_deg": 103.2407,
      "arg_perigee_deg": 71.0491,
      "mean_anomaly_deg": 289.0692,
      "mean_motion_rev_day": 15.0883826
    },
    {
      "epoch": "2026-04-04T10:15:17.673696Z",
      "apogee_km": 541.0018111788877,
      "perigee_km": 538.4979512011114,
      "latitude_deg": 2.9813178111140898e-05,
      "longitude_deg": 111.61388132037236,
      "height_km": 540.3770197464685,
      "semi_major_axis_km": 6917.886881189999,
      "eccentricity": 0.00018097,
      "inclination_deg": 53.2175,
      "raan_deg": 98.1849,
      "arg_perigee_deg": 77.639,
      "mean_anomaly_deg": 282.4805,
      "mean_motion_rev_day": 15.08837876
    },
    {
      "epoch": "2026-04-05T06:55:18.859008Z",
      "apogee_km": 540.9360541329561,
      "perigee_km": 538.601952647412,
      "latitude_deg": 4.725923373631192e-07,
      "longitude_deg": 156.89445628126958,
      "height_km": 540.3249881059677,
      "semi_major_axis_km": 6917.906003390184,
      "eccentricity": 0.0001687,
      "inclination_deg": 53.2165,
      "raan_deg": 94.3192,
      "arg_perigee_deg": 73.0996,
      "mean_anomaly_deg": 287.0181,
      "mean_motion_rev_day": 15.0883162
    },
    {
      "epoch": "2026-04-06T05:10:42.763008Z",
      "apogee_km": 540.9249346267607,
      "perigee_km": 538.5900068849915,
      "latitude_deg": 7.447420325686522e-05,
      "longitude_deg": 177.9668617687948,
      "height_km": 540.2427082195516,
      "semi_major_axis_km": 6917.894470755876,
      "eccentricity": 0.00016876,
      "inclination_deg": 53.2168,
      "raan_deg": 90.1552,
      "arg_perigee_deg": 69.4352,
      "mean_anomaly_deg": 290.6822,
      "mean_motion_rev_day": 15.08835393
    },
    {
      "epoch": "2026-04-07T09:47:39.153984Z",
      "apogee_km": 540.9566273365517,
      "perigee_km": 538.5396566256468,
      "latitude_deg": -5.050900650282666e-06,
      "longitude_deg": 102.20523352849756,
      "height_km": 540.3229933737854,
      "semi_major_axis_km": 6917.885141981099,
      "eccentricity": 0.00017469,
      "inclination_deg": 53.2174,
      "raan_deg": 84.8038,
      "arg_perigee_deg": 74.6254,
      "mean_anomaly_deg": 285.4931,
      "mean_motion_rev_day": 15.08838445
    },
    {
      "epoch": "2026-04-08T08:03:03.071808Z",
      "apogee_km": 540.9498035421439,
      "perigee_km": 538.5361552173381,
      "latitude_deg": -1.5478955285309698e-05,
      "longitude_deg": 123.27841752037995,
      "height_km": 540.3269933075612,
      "semi_major_axis_km": 6917.879979379741,
      "eccentricity": 0.00017445,
      "inclination_deg": 53.2174,
      "raan_deg": 80.6407,
      "arg_perigee_deg": 75.0544,
      "mean_anomaly_deg": 285.0641,
      "mean_motion_rev_day": 15.08840134
    },
    {
      "epoch": "2026-04-09T15:50:46.018176Z",
      "apogee_km": 540.9575704251474,
      "perigee_km": 538.5363110458893,
      "latitude_deg": -1.5377968768186377e-05,
      "longitude_deg": -0.9047146247648633,
      "height_km": 540.3898260295261,
      "semi_major_axis_km": 6917.883940735518,
      "eccentricity": 0.000175,
      "inclination_deg": 53.2169,
      "raan_deg": 74.6923,
      "arg_perigee_deg": 77.9722,
      "mean_anomaly_deg": 282.1466,
      "mean_motion_rev_day": 15.08838838
    },
    {
      "epoch": "2026-04-10T04:33:50.948928Z",
      "apogee_km": 540.9531723412338,
      "perigee_km": 538.53205283442,
      "latitude_deg": 1.4855959959952605e-06,
      "longitude_deg": 165.42264047981539,
      "height_km": 540.4428582012347,
      "semi_major_axis_km": 6917.879612587826,
      "eccentricity": 0.00017499,
      "inclination_deg": 53.2169,
      "raan_deg": 72.3125,
      "arg_perigee_deg": 80.7354,
      "mean_anomaly_deg": 279.3836,
      "mean_motion_rev_day": 15.08840254
    },
    {
      "epoch": "2026-04-11T07:35:24.400032Z",
      "apogee_km": 540.9529467003922,
      "perigee_km": 538.5482889644336,
      "latitude_deg": -7.345736034711285e-05,
      "longitude_deg": 113.86868605064699,
      "height_km": 540.4273688799947,
      "semi_major_axis_km": 6917.887617832413,
      "eccentricity": 0.0001738,
      "inclination_deg": 53.2168,
      "raan_deg": 67.2579,
      "arg_perigee_deg": 79.5336,
      "mean_anomaly_deg": 280.5851,
      "mean_motion_rev_day": 15.08837635
    },
    {
      "epoch": "2026-04-13T04:06:12.646080Z",
      "apogee_km": 541.0224202566087,
      "perigee_km": 538.4940679028023,
      "latitude_deg": -1.8788061799937282e-05,
      "longitude_deg": 156.01399957790855,
      "height_km": 540.4684648599767,
      "semi_major_axis_km": 6917.895244079705,
      "eccentricity": 0.00018274,
      "inclination_deg": 53.2173,
      "raan_deg": 58.9323,
      "arg_perigee_deg": 81.5922,
      "mean_anomaly_deg": 278.5277,
      "mean_motion_rev_day": 15.0883514
    },
    {
      "epoch": "2026-04-14T13:29:20.942016Z",
      "apogee_km": 540.9483548249354,
      "perigee_km": 538.7083176490623,
      "latitude_deg": -7.025311639837184e-05,
      "longitude_deg": 7.614896826217249,
      "height_km": 540.6234238046957,
      "semi_major_axis_km": 6917.965336236999,
      "eccentricity": 0.0001619,
      "inclination_deg": 53.2174,
      "raan_deg": 52.6889,
      "arg_perigee_deg": 84.8639,
      "mean_anomaly_deg": 275.2537,
      "mean_motion_rev_day": 15.08812209
    }
  ]
}